NORAD_CAT_ID,OBJECT_NAME,OBJECT_TYPE,EPOCH,MEAN_MOTION,ECCENTRICITY,INCLINATION,RA_OF_ASC_NODE,ARG_OF_PERICENTER,MEAN_ANOMALY,BSTAR,MEAN_MOTION_DOT,MEAN_MOTION_DDOT,TLE_LINE0,TLE_LINE1,TLE_LINE2,SEMIMAJOR_AXIS,PERIOD,APOGEE,PERIGEE,DECAYED
55658.0,STARLINK-5307,PAYLOAD,2023-10-09 07:39:23,14.98334182,0.000282,70.0,249.1063,264.9369,95.1469,9.7035e-05,1.065e-05,0.0,0 STARLINK-5307,1 55658U 23021AG  23282.31902398  .00001065  00000-0  97035-4 0  9999,2 55658  70.0000 249.1063 0002820 264.9369  95.1469 14.98334182 36628,6950.18,96.107,574.005,570.085,0.0
55658.0,STARLINK-5307,PAYLOAD,2023-10-09 22:04:36,14.98328988,0.0002592,70.0004,247.5926,275.3072,84.7791,7.5666e-05,8.1e-06,0.0,0 STARLINK-5307,1 55658U 23021AG  23282.91986857  .00000810  00000-0  75666-4 0  9990,2 55658  70.0004 247.5926 0002592 275.3072  84.7791 14.98328988 36714,6950.196,96.107,573.863,570.26,0.0
55658.0,STARLINK-5307,PAYLOAD,2023-10-10 02:53:00,14.98327298,0.0002682,70.0005,247.0872,273.5328,86.5524,4.9665e-05,5e-06,0.0,0 STARLINK-5307,1 55658U 23021AG  23283.12015023  .00000500  00000-0  49665-4 0  9998,2 55658  70.0005 247.0872 0002682 273.5328  86.5524 14.98327298 36441,6950.201,96.107,573.93,570.202,0.0
55658.0,STARLINK-5307,PAYLOAD,2023-10-10 07:41:25,14.98313278,0.0002593,70.001,246.5821,276.1484,83.938,0.00029886,3.473e-05,0.0,0 STARLINK-5307,1 55658U 23021AG  23283.32043364  .00003473  00000-0  29886-3 0  9993,2 55658  70.0010 246.5821 0002593 276.1484  83.9380 14.98313278 36475,6950.245,96.108,573.912,570.307,0.0
55658.0,STARLINK-5307,PAYLOAD,2023-10-10 22:06:37,14.98326738,0.0002718,70.001,245.0675,275.6572,84.4277,-1.8434e-05,-3.13e-06,0.0,0 STARLINK-5307,1 55658U 23021AG  23283.92127302 -.00000313  00000-0 -18434-4 0  9994,2 55658  70.0010 245.0675 0002718 275.6572  84.4277 14.98326738 36866,6950.203,96.107,573.957,570.179,0.0
55658.0,STARLINK-5307,PAYLOAD,2023-10-11 02:55:02,14.98326296,0.0002954,70.0,244.5614,270.3687,89.7134,-5.8189e-05,-7.87e-06,0.0,0 STARLINK-5307,1 55658U 23021AG  23284.12155408 -.00000787  00000-0 -58189-4 0  9991,2 55658  70.0000 244.5614 0002954 270.3687  89.7134 14.98326296 36592,6950.204,96.107,574.122,570.016,0.0
55658.0,STARLINK-5307,PAYLOAD,2023-10-11 07:43:26,14.98330756,0.0002845,70.0003,244.0585,265.4765,94.6069,-1.9746e-05,-3.29e-06,0.0,0 STARLINK-5307,1 55658U 23021AG  23284.32183039 -.00000329  00000-0 -19746-4 0  9992,2 55658  70.0003 244.0585 0002845 265.4765  94.6069 14.98330756 36923,6950.191,96.107,574.033,570.078,0.0
55658.0,STARLINK-5307,PAYLOAD,2023-10-12 04:33:10,14.98329392,0.0003054,70.0007,241.87,273.692,86.389,4.5764e-05,4.53e-06,0.0,0 STARLINK-5307,1 55658U 23021AG  23285.18970964  .00000453  00000-0  45764-4 0  9993,2 55658  70.0007 241.8700 0003054 273.6920  86.3890 14.98329392 36753,6950.195,96.107,574.182,569.937,0.0
55658.0,STARLINK-5307,PAYLOAD,2023-10-12 14:09:59,14.98333199,0.0002557,70.0021,240.8588,280.595,79.4921,-4.0103e-05,-5.71e-06,0.0,0 STARLINK-5307,1 55658U 23021AG  23285.59027008 -.00000571  00000-0 -40103-4 0  9995,2 55658  70.0021 240.8588 0002557 280.5950  79.4921 14.98333199 37118,6950.183,96.107,573.825,570.271,0.0
55658.0,STARLINK-5307,PAYLOAD,2023-10-12 22:10:39,14.98311989,0.0002887,70.0008,240.0183,267.285,92.7978,0.00027724,3.215e-05,0.0,0 STARLINK-5307,1 55658U 23021AG  23285.92407265  .00003215  00000-0  27724-3 0  9998,2 55658  70.0008 240.0183 0002887 267.2850  92.7978 14.98311989 37161,6950.249,96.108,574.12,570.107,0.0
55658.0,STARLINK-5307,PAYLOAD,2023-10-13 04:35:11,14.98330738,0.0002779,70.0003,239.3453,267.8806,92.2035,4.9263e-05,4.95e-06,0.0,0 STARLINK-5307,1 55658U 23021AG  23286.19110903  .00000495  00000-0  49263-4 0  9998,2 55658  70.0003 239.3453 0002779 267.8806  92.2035 14.98330738 36907,6950.191,96.107,573.987,570.124,0.0
55658.0,STARLINK-5307,PAYLOAD,2023-10-13 14:11:59,14.98335105,0.0002767,70.0006,238.3351,269.0141,91.0701,4.3506e-05,4.26e-06,0.0,0 STARLINK-5307,1 55658U 23021AG  23286.59166571  .00000426  00000-0  43506-4 0  9992,2 55658  70.0006 238.3351 0002767 269.0141  91.0701 14.98335105 37269,6950.177,96.107,573.965,570.119,0.0
55658.0,STARLINK-5307,PAYLOAD,2023-10-13 22:12:40,14.98332506,0.0002892,70.0003,237.4926,270.755,89.3277,6.1761e-05,6.44e-06,0.0,0 STARLINK-5307,1 55658U 23021AG  23286.92546562  .00000644  00000-0  61761-4 0  9996,2 55658  70.0003 237.4926 0002892 270.7550  89.3277 14.98332506 37312,6950.185,96.107,574.06,570.04,0.0
55658.0,STARLINK-5307,PAYLOAD,2023-10-14 04:37:11,14.98339994,0.0002775,70.0003,236.8191,265.3167,94.7675,0.00011255,1.251e-05,0.0,0 STARLINK-5307,1 55658U 23021AG  23287.19249825  .00001251  00000-0  11255-3 0  9995,2 55658  70.0003 236.8191 0002775 265.3167  94.7675 14.98339994 37054,6950.162,96.106,573.956,570.098,0.0
55658.0,STARLINK-5307,PAYLOAD,2023-10-14 14:14:01,14.98330763,0.0002663,70.0009,235.8097,274.3404,85.745,-0.00010335,-1.326e-05,0.0,0 STARLINK-5307,1 55658U 23021AG  23287.59306911 -.00001326  00000-0 -10335-3 0  9992,2 55658  70.0009 235.8097 0002663 274.3404  85.7450 14.98330763 37410,6950.191,96.107,573.906,570.205,0.0
55658.0,STARLINK-5307,PAYLOAD,2023-10-14 20:38:34,14.9831675,0.0002772,70.0004,235.1352,274.1435,85.9407,-6.4269e-05,-8.59e-06,0.0,0 STARLINK-5307,1 55658U 23021AG  23287.86011721 -.00000859  00000-0 -64269-4 0  9990,2 55658  70.0004 235.1352 0002772 274.1435  85.9407 14.98316750 37150,6950.234,96.108,574.025,570.172,0.0
55658.0,STARLINK-5307,PAYLOAD,2023-10-14 22:14:42,14.98312177,0.0002892,70.0004,234.9688,272.5015,87.5813,-0.00018163,-2.258e-05,0.0,0 STARLINK-5307,1 55658U 23021AG  23287.92688363 -.00002258  00000-0 -18163-3 0  9995,2 55658  70.0004 234.9688 0002892 272.5015  87.5813 14.98312177 37460,6950.248,96.108,574.123,570.103,0.0
55658.0,STARLINK-5307,PAYLOAD,2023-10-15 06:15:23,14.9831665,0.0002868,70.0004,234.1271,272.0974,87.9857,-0.00017703,-2.204e-05,0.0,0 STARLINK-5307,1 55658U 23021AG  23288.26068384 -.00002204  00000-0 -17703-3 0  9998,2 55658  70.0004 234.1271 0002868 272.0974  87.9857 14.98316650 37510,6950.234,96.108,574.093,570.106,0.0
55658.0,STARLINK-5307,PAYLOAD,2023-10-15 20:40:34,14.98326752,0.0003272,69.9993,232.612,268.4645,91.6139,-4.4994e-05,-6.3e-06,0.0,0 STARLINK-5307,1 55658U 23021AG  23288.86151451 -.00000630  00000-0 -44994-4 0  9996,2 55658  69.9993 232.6120 0003272 268.4645  91.6139 14.98326752 37300,6950.203,96.107,574.342,569.794,0.0
55658.0,STARLINK-5307,PAYLOAD,2023-10-15 22:16:42,14.98328308,0.0003238,69.9996,232.4435,268.6665,91.4124,-1.9219e-05,-3.22e-06,0.0,0 STARLINK-5307,1 55658U 23021AG  23288.92827306 -.00000322  00000-0 -19219-4 0  9992,2 55658  69.9996 232.4435 0003238 268.6665  91.4124 14.98328308 37611,6950.198,96.107,574.314,569.813,0.0
55658.0,STARLINK-5307,PAYLOAD,2023-10-16 06:17:22,14.98341538,0.0002922,70.0002,231.6019,267.2697,92.8127,5.1005e-05,5.16e-06,0.0,0 STARLINK-5307,1 55658U 23021AG  23289.26206272  .00000516  00000-0  51005-4 0  9995,2 55658  70.0002 231.6019 0002922 267.2697  92.8127 14.98341538 37360,6950.157,96.106,574.053,569.991,0.0
55658.0,STARLINK-5307,PAYLOAD,2023-10-17 06:19:23,14.98324718,0.0002908,70.0005,229.0771,272.4518,87.6308,0.00021194,2.436e-05,0.0,0 STARLINK-5307,1 55658U 23021AG  23290.26346910  .00002436  00000-0  21194-3 0  9999,2 55658  70.0005 229.0771 0002908 272.4518  87.6308 14.98324718 37514,6950.209,96.107,574.095,570.053,0.0
55658.0,STARLINK-5307,PAYLOAD,2023-10-17 12:43:56,14.983274,0.0002751,70.0015,228.4036,275.7743,84.3102,0.0001518,1.719e-05,0.0,0 STARLINK-5307,1 55658U 23021AG  23290.53050998  .00001719  00000-0  15180-3 0  9998,2 55658  70.0015 228.4036 0002751 275.7743  84.3102 14.98327400 37858,6950.201,96.107,573.978,570.154,0.0
55658.0,STARLINK-5307,PAYLOAD,2023-10-18 01:33:00,14.9833787,0.0002464,70.002,227.0577,272.8105,87.2772,-5.2269e-05,-7.17e-06,0.0,0 STARLINK-5307,1 55658U 23021AG  23291.06458865 -.00000717  00000-0 -52269-4 0  9991,2 55658  70.0020 227.0577 0002464 272.8105  87.2772 14.98337870 37936,6950.169,96.106,573.746,570.321,0.0
55658.0,STARLINK-5307,PAYLOAD,2023-10-18 12:45:56,14.98368993,0.0002509,70.0025,225.8776,285.0763,75.0118,-0.00064208,-7.753e-05,0.0,0 STARLINK-5307,1 55658U 23021AG  23291.53190094 -.00007753  00000-0 -64208-3 0  9992,2 55658  70.0025 225.8776 0002509 285.0763  75.0118 14.98368993 37708,6950.072,96.104,573.681,570.194,0.0
55658.0,STARLINK-5307,PAYLOAD,2023-10-19 04:47:17,14.98335781,0.0002382,70.0033,224.1946,284.0121,76.0773,8.7435e-06,1.1e-07,0.0,0 STARLINK-5307,1 55658U 23021AG  23292.19950540  .00000011  00000-0  87435-5 0  9992,2 55658  70.0033 224.1946 0002382 284.0121  76.0773 14.98335781 37802,6950.175,96.107,573.696,570.384,0.0
55658.0,STARLINK-5307,PAYLOAD,2023-10-19 22:24:45,14.98333034,0.0002191,70.0018,222.3435,271.9927,88.0981,-2.0962e-05,-3.43e-06,0.0,0 STARLINK-5307,1 55658U 23021AG  23292.93386525 -.00000343  00000-0 -20962-4 0  9991,2 55658  70.0018 222.3435 0002191 271.9927  88.0981 14.98333034 38214,6950.184,96.107,573.571,570.526,0.0
55658.0,STARLINK-5307,PAYLOAD,2023-10-20 04:49:18,14.98331232,0.0002725,70.0007,221.6706,269.0163,91.0683,7.1294e-05,7.58e-06,0.0,0 STARLINK-5307,1 55658U 23021AG  23293.20090299  .00000758  00000-0  71294-4 0  9994,2 55658  70.0007 221.6706 0002725 269.0163  91.0683 14.98331232 37959,6950.189,96.107,573.948,570.16,0.0
55658.0,STARLINK-5307,PAYLOAD,2023-10-20 20:50:39,14.98321497,0.0002557,70.0025,219.9885,271.7465,88.3401,-0.00010624,-1.36e-05,0.0,0 STARLINK-5307,1 55658U 23021AG  23293.86851584 -.00001360  00000-0 -10624-3 0  9999,2 55658  70.0025 219.9885 0002557 271.7465  88.3401 14.98321497 38056,6950.219,96.108,573.861,570.307,0.0
55658.0,STARLINK-5307,PAYLOAD,2023-10-20 22:26:47,14.98327631,0.0002561,70.0004,219.8196,272.902,87.1846,-0.00023686,-2.918e-05,0.0,0 STARLINK-5307,1 55658U 23021AG  23293.93527482 -.00002918  00000-0 -23686-3 0  9996,2 55658  70.0004 219.8196 0002561 272.9020  87.1846 14.98327631 38362,6950.2,96.107,573.845,570.285,0.0
